STARLINK-2022           
1 47643U 21012Z   23196.08756795  .00024403  00000+0  16501-2 0  9995
2 47643  53.0551  79.8474 0001265 102.3454 257.7677 15.06431975133758
